{
  "links" : {
    "next" : "https://api.nasa.gov/neo/rest/v1/feed?start_date=2001-10-23&end_date=2001-10-23&detailed=true&api_key=t0TVs3DtDT2H8Oy2Zy8m2eVrNsAVKAexjcZXUckd",
    "prev" : "https://api.nasa.gov/neo/rest/v1/feed?start_date=2001-10-21&end_date=2001-10-21&detailed=true&api_key=t0TVs3DtDT2H8Oy2Zy8m2eVrNsAVKAexjcZXUckd",
    "self" : "https://api.nasa.gov/neo/rest/v1/feed?start_date=2001-10-22&end_date=2001-10-22&detailed=true&api_key=t0TVs3DtDT2H8Oy2Zy8m2eVrNsAVKAexjcZXUckd"
  },
  "element_count" : 1,
  "near_earth_objects" : {
    "2001-10-22" : [ {
      "links" : {
        "self" : "https://api.nasa.gov/neo/rest/v1/neo/2387871?api_key=t0TVs3DtDT2H8Oy2Zy8m2eVrNsAVKAexjcZXUckd"
      },
      "neo_reference_id" : "2387871",
      "name" : "387871 (2004 RD252)",
      "nasa_jpl_url" : "http://ssd.jpl.nasa.gov/sbdb.cgi?sstr=2387871",
      "absolute_magnitude_h" : 19.1,
      "estimated_diameter" : {
        "kilometers" : {
          "estimated_diameter_min" : 0.4023045798,
          "estimated_diameter_max" : 0.8995803882
        },
        "meters" : {
          "estimated_diameter_min" : 402.3045798343,
          "estimated_diameter_max" : 899.5803881691
        },
        "miles" : {
          "estimated_diameter_min" : 0.2499803991,
          "estimated_diameter_max" : 0.5589731654
        },
        "feet" : {
          "estimated_diameter_min" : 1319.8969577037,
          "estimated_diameter_max" : 2951.3793207207
        }
      },
      "is_potentially_hazardous_asteroid" : false,
      "close_approach_data" : [ {
        "close_approach_date" : "2001-10-22",
        "epoch_date_close_approach" : 1003734000000,
        "relative_velocity" : {
          "kilometers_per_second" : "22.0832762546",
          "kilometers_per_hour" : "79499.7945163858",
          "miles_per_hour" : "49398.0806538065"
        },
        "miss_distance" : {
          "astronomical" : "0.3425282576",
          "lunar" : "133.2434844971",
          "kilometers" : "51241496",
          "miles" : "31839990"
        },
        "orbiting_body" : "Earth"
      } ],
      "orbital_data" : {
        "orbit_id" : "45",
        "orbit_determination_date" : "2017-04-06 09:22:04",
        "orbit_uncertainty" : "0",
        "minimum_orbit_intersection" : ".117222",
        "jupiter_tisserand_invariant" : "3.477",
        "epoch_osculation" : "2458000.5",
        "eccentricity" : ".600065088599369",
        "semi_major_axis" : "2.101036229747976",
        "inclination" : "10.39392567125809",
        "ascending_node_longitude" : "288.1311858904734",
        "orbital_period" : "1112.3686455861",
        "perihelion_distance" : ".8402777383937727",
        "perihelion_argument" : "174.70072987",
        "aphelion_distance" : "3.36179472110218",
        "perihelion_time" : "2457799.472023743733",
        "mean_anomaly" : "65.05943127705183",
        "mean_motion" : ".3236337174986789",
        "equinox" : "J2000"
      }
    } ]
  }
}